*******************************************************************************
JPL/HORIZONS             4217 Engelhardt (1988 BO2)        2023-Sep-04 11:27:57
Rec #:    4217 (+COV) Soln.date: 2023-Aug-23_16:57:31   # obs: 3748 (1944-2023)
 
IAU76/J2000 helio. ecliptic osc. elements (au, days, deg., period=Julian yrs):
 
  EPOCH=  2457713.5 ! 2016-Nov-21.00 (TDB)         Residual RMS= .26289
   EC= .2119571679617828   QR= 1.824286076427534   TP= 2458313.4135409584
   OM= 355.4492695218796   W=  348.6327590825055   IN= 23.14136352445648
   A= 2.314958022915007    MA= 192.1280798214499   ADIST= 2.805629969402479
   PER= 3.52227            N= .279826856           ANGMOM= .025578292
   DAN= 1.83057            DDN= 2.79091            L= 344.9755679
   B= -4.442539            MOID= .82163501         TP= 2018-Jul-13.9135409584
 
Asteroid physical parameters (km, seconds, rotational period in hours):
   GM= n.a.                RAD= 4.371              ROTPER= 3.0661
   H= 12.47                G= .150                 B-V= n.a.
                           ALBEDO= .231            STYP= n.a.

ASTEROID comments: 
1: soln ref.= JPL#45, OCC=0
2: source=ORB
*******************************************************************************


*******************************************************************************
Ephemeris / API_USER Mon Sep  4 11:27:57 2023 Pasadena, USA      / Horizons
*******************************************************************************
Target body name: 4217 Engelhardt (1988 BO2)      {source: JPL#45}
Center body name: Solar System Barycenter (0)     {source: DE441}
Center-site name: BODY CENTER
*******************************************************************************
Start time      : A.D. 2023-Aug-12 00:00:00.0000 TDB
Stop  time      : A.D. 2023-Aug-13 00:00:00.0000 TDB
Step-size       : 2880 minutes
*******************************************************************************
Center geodetic : 0.0, 0.0, 0.0                   {E-lon(deg),Lat(deg),Alt(km)}
Center cylindric: 0.0, 0.0, 0.0                   {E-lon(deg),Dxy(km),Dz(km)}
Center radii    : (undefined)
Small perturbers: Yes                             {source: SB441-N16}
Output units    : KM-S
Calendar mode   : Mixed Julian/Gregorian
Output type     : GEOMETRIC cartesian states
Output format   : 2 (position and velocity)
Reference frame : Ecliptic of J2000.0
*******************************************************************************
Initial IAU76/J2000 heliocentric ecliptic osculating elements (au, days, deg.):
  EPOCH=  2457713.5 ! 2016-Nov-21.00 (TDB)         Residual RMS= .26289        
   EC= .2119571679617828   QR= 1.824286076427534   TP= 2458313.4135409584      
   OM= 355.4492695218796   W=  348.6327590825055   IN= 23.14136352445648       
  Equivalent ICRF heliocentric cartesian coordinates (au, au/d):
   X=-2.773058307790497E+00  Y= 3.130895069509468E-01  Z= 2.043927219380368E-01
  VX=-8.460323592759920E-04 VY=-6.248884453605827E-03 VZ=-6.626837410930408E-03
Asteroid physical parameters (km, seconds, rotational period in hours):        
   GM= n.a.                RAD= 4.371              ROTPER= 3.0661              
   H= 12.47                G= .150                 B-V= n.a.                   
                           ALBEDO= .231            STYP= n.a.                  
*******************************************************************************
JDTDB
   X     Y     Z
   VX    VY    VZ
*******************************************************************************
$$SOE
2460168.500000000 = A.D. 2023-Aug-12 00:00:00.0000 TDB 
 X =-3.642117964904265E+08 Y = 1.915732672210504E+08 Z = 6.932964468193206E+07
 VX=-8.659235819530918E+00 VY=-1.221694506715363E+01 VZ=-5.492961754356272E+00
$$EOE
*******************************************************************************
 
TIME

  Barycentric Dynamical Time ("TDB" or T_eph) output was requested. This
continuous coordinate time is equivalent to the relativistic proper time
of a clock at rest in a reference frame co-moving with the solar system
barycenter but outside the system's gravity well. It is the independent
variable in the solar system relativistic equations of motion.

  TDB runs at a uniform rate of one SI second per second and is independent
of irregularities in Earth's rotation.
 
CALENDAR SYSTEM

  Mixed calendar mode was active such that calendar dates after AD 1582-Oct-15
(if any) are in the modern Gregorian system. Dates prior to 1582-Oct-5 (if any)
are in the Julian calendar system, which is automatically extended for dates
prior to its adoption on 45-Jan-1 BC.  The Julian calendar is useful for
matching historical dates. The Gregorian calendar more accurately corresponds
to the Earth's orbital motion and seasons. A "Gregorian-only" calendar mode is
available if such physical events are the primary interest.

REFERENCE FRAME AND COORDINATES

  Ecliptic at the standard reference epoch

    Reference epoch: J2000.0
    X-Y plane: adopted Earth orbital plane at the reference epoch
               Note: IAU76 obliquity of 84381.448 arcseconds wrt ICRF X-Y plane
    X-axis   : ICRF
    Z-axis   : perpendicular to the X-Y plane in the directional (+ or -) sense
               of Earth's north pole at the reference epoch.

  Symbol meaning:

    JDTDB    Julian Day Number, Barycentric Dynamical Time
      X      X-component of position vector (km)
      Y      Y-component of position vector (km)
      Z      Z-component of position vector (km)
      VX     X-component of velocity vector (km/sec)                           
      VY     Y-component of velocity vector (km/sec)                           
      VZ     Z-component of velocity vector (km/sec)                           

ABERRATIONS AND CORRECTIONS

 Geometric state vectors have NO corrections or aberrations applied.

Computations by ...

    Solar System Dynamics Group, Horizons On-Line Ephemeris System
    4800 Oak Grove Drive, Jet Propulsion Laboratory
    Pasadena, CA  91109   USA

    General site: https://ssd.jpl.nasa.gov/
    Mailing list: https://ssd.jpl.nasa.gov/email_list.html
    System news : https://ssd.jpl.nasa.gov/horizons/news.html
    User Guide  : https://ssd.jpl.nasa.gov/horizons/manual.html
    Connect     : browser        https://ssd.jpl.nasa.gov/horizons/app.html#/x
                  API            https://ssd-api.jpl.nasa.gov/doc/horizons.html
                  command-line   telnet ssd.jpl.nasa.gov 6775
                  e-mail/batch   https://ssd.jpl.nasa.gov/ftp/ssd/hrzn_batch.txt
                  scripts        https://ssd.jpl.nasa.gov/ftp/ssd/SCRIPTS
    Author      : Jon.D.Giorgini@jpl.nasa.gov
*******************************************************************************
